ONEWEB-0033             
1 45142U 20008M   23059.51333741  .00000529  00000+0  14782-2 0  9991
2 45142  87.8838 275.6181 0001629  99.1271 261.0040 13.10371954151348
ONEWEB-0033             
1 45142U 20008M   23059.58969483  .00000639  00000+0  17934-2 0  9990
2 45142  87.8838 275.6030 0001627  99.0939 261.0372 13.10371914150454
ONEWEB-0033             
1 45142U 20008M   23059.89512507  .00000638  00000+0  17924-2 0  9993
2 45142  87.8839 275.5422 0001630  99.1889 260.9423 13.10372455150498
ONEWEB-0033             
1 45142U 20008M   23060.58234274  .00000671  00000+0  18854-2 0  9993
2 45142  87.8840 275.4055 0001696  99.0483 261.0836 13.10373456151484
ONEWEB-0033             
1 45142U 20008M   23060.88777212  .00000737  00000+0  20748-2 0  9998
2 45142  87.8841 275.3448 0001712  98.6504 261.4818 13.10374140150628
ONEWEB-0033             
1 45142U 20008M   23061.57498931  .00000688  00000+0  19357-2 0  9992
2 45142  87.8844 275.2081 0001680  98.1661 261.9657 13.10374443150718
ONEWEB-0033             
1 45142U 20008M   23062.10949083  .00000666  00000+0  18710-2 0  9999
2 45142  87.8841 275.1017 0001682  98.2385 261.8933 13.10374852150786
ONEWEB-0033             
1 45142U 20008M   23062.10949083  .00000666  00000+0  18710-2 0  9999
2 45142  87.8841 275.1017 0001682  98.2385 261.8933 13.10374852151686
ONEWEB-0033             
1 45142U 20008M   23062.87306383  .00000479  00000+0  13348-2 0  9997
2 45142  87.8842 274.9498 0001674  98.1631 261.9686 13.10375809150881
